<?xml version="1.0" encoding="UTF-8"?>
<gpx xmlns="http://www.topografix.com/GPX/1/1" version="1.1" creator="ExpertGPS 9.15 using Garmin GPSMAP 62stc" xmlns:xsi="http://www.w3.org/2001/XMLSchema-instance" xmlns:wptx1="http://www.garmin.com/xmlschemas/WaypointExtension/v1" xmlns:gpxx="http://www.garmin.com/xmlschemas/GpxExtensions/v3" xmlns:gpxtpx="http://www.garmin.com/xmlschemas/TrackPointExtension/v2" xsi:schemaLocation="http://www.topografix.com/GPX/1/1 https://www.topografix.com/GPX/1/1/gpx.xsd http://www.topografix.com/GPX/gpx_style/0/2 https://www.topografix.com/GPX/gpx_style/0/2/gpx_style.xsd http://www.topografix.com/GPX/gpx_overlay/0/5 https://www.topografix.com/GPX/gpx_overlay/0/5/gpx_overlay.xsd http://www.topografix.com/GPX/gpx_modified/0/1 https://www.topografix.com/GPX/gpx_modified/0/1/gpx_modified.xsd http://www.topografix.com/GPX/Private/TopoGrafix/0/5 https://www.topografix.com/GPX/Private/TopoGrafix/0/5/topografix.xsd http://www.garmin.com/xmlschemas/WaypointExtension/v1 https://www8.garmin.com/xmlschemas/WaypointExtensionv1.xsd http://www.garmin.com/xmlschemas/GpxExtensions/v3 https://www8.garmin.com/xmlschemas/GpxExtensionsv3.xsd http://www.garmin.com/xmlschemas/TrackPointExtension/v2 http://www.garmin.com/xmlschemas/TrackPointExtensionv2.xsd">
<metadata>
<bounds minlat="33.56304170" minlon="-111.52890297" maxlat="33.57962631" maxlon="-111.48214330"/>
<extensions>
<time xmlns="http://www.topografix.com/GPX/gpx_modified/0/1">2026-01-14T15:46:54.975Z</time>
<pro_data_column xmlns="http://www.topografix.com/GPX/Private/TopoGrafix/0/5" list="wpt" name="Site"/>
<pro_data_column xmlns="http://www.topografix.com/GPX/Private/TopoGrafix/0/5" list="wpt" name="Date"/>
<pro_data_column xmlns="http://www.topografix.com/GPX/Private/TopoGrafix/0/5" list="wpt" name="Datum"/>
<pro_data_column xmlns="http://www.topografix.com/GPX/Private/TopoGrafix/0/5" list="wpt" name="UTMZone"/>
<pro_data_column xmlns="http://www.topografix.com/GPX/Private/TopoGrafix/0/5" list="wpt" name="Elevation (ft)"/>
<pro_data_column xmlns="http://www.topografix.com/GPX/Private/TopoGrafix/0/5" list="wpt" name="Depth (ft)"/>
<pro_data_column xmlns="http://www.topografix.com/GPX/Private/TopoGrafix/0/5" list="wpt" name="Structure Type"/>
<pro_data_column xmlns="http://www.topografix.com/GPX/Private/TopoGrafix/0/5" list="wpt" name="Structure Number"/>
<pro_data_column xmlns="http://www.topografix.com/GPX/Private/TopoGrafix/0/5" list="wpt" name="Site Comments"/>
</extensions>
</metadata>
<wpt lat="33.57520640" lon="-111.52881575">
<time>2026-01-14T15:47:02.611Z</time>
<extensions>
<label xmlns="http://www.topografix.com/GPX/gpx_overlay/0/5">
</label>
<ExtendedData xmlns="http://www.topografix.com/GPX/Private/TopoGrafix/0/5">
<Data name="Date">
<value>1/9/2021</value>
</Data>
<Data name="Elevation (ft)">
<value>1500-1505</value>
</Data>
<Data name="Datum">
<value>WGS84</value>
</Data>
<Data name="Structure Number">
<value>46</value>
</Data>
<Data name="Structure Type">
<value>Christmas trees</value>
</Data>
<Data name="Site">
<value>1</value>
</Data>
<Data name="UTMZone">
<value>12N</value>
</Data>
</ExtendedData>
</extensions>
</wpt>
<wpt lat="33.57520640" lon="-111.52881575">
<time>2026-01-14T15:47:02.611Z</time>
<extensions>
<label xmlns="http://www.topografix.com/GPX/gpx_overlay/0/5">
</label>
<ExtendedData xmlns="http://www.topografix.com/GPX/Private/TopoGrafix/0/5">
<Data name="Date">
<value>1/10/2022</value>
</Data>
<Data name="Elevation (ft)">
<value>1500-1505</value>
</Data>
<Data name="Datum">
<value>WGS84</value>
</Data>
<Data name="Structure Number">
<value>133</value>
</Data>
<Data name="Structure Type">
<value>Christmas trees</value>
</Data>
<Data name="Site">
<value>1</value>
</Data>
<Data name="UTMZone">
<value>12N</value>
</Data>
</ExtendedData>
</extensions>
</wpt>
<wpt lat="33.57538115" lon="-111.52890297">
<time>2026-01-14T15:47:02.611Z</time>
<extensions>
<label xmlns="http://www.topografix.com/GPX/gpx_overlay/0/5">
</label>
<ExtendedData xmlns="http://www.topografix.com/GPX/Private/TopoGrafix/0/5">
<Data name="Date">
<value>10/24/2025</value>
</Data>
<Data name="Elevation (ft)">
<value>25</value>
</Data>
<Data name="Datum">
<value>WGS84</value>
</Data>
<Data name="Structure Number">
<value>7</value>
</Data>
<Data name="Structure Type">
<value>Mossback</value>
</Data>
<Data name="Site">
<value>1</value>
</Data>
<Data name="UTMZone">
<value>12</value>
</Data>
</ExtendedData>
</extensions>
</wpt>
<wpt lat="33.57538115" lon="-111.52890297">
<time>2026-01-14T15:47:02.611Z</time>
<extensions>
<label xmlns="http://www.topografix.com/GPX/gpx_overlay/0/5">
</label>
<ExtendedData xmlns="http://www.topografix.com/GPX/Private/TopoGrafix/0/5">
<Data name="Date">
<value>10/24/2025</value>
</Data>
<Data name="Elevation (ft)">
<value>25</value>
</Data>
<Data name="Datum">
<value>WGS84</value>
</Data>
<Data name="Structure Number">
<value>3</value>
</Data>
<Data name="Structure Type">
<value>Mossback</value>
</Data>
<Data name="Site">
<value>1</value>
</Data>
<Data name="UTMZone">
<value>12</value>
</Data>
</ExtendedData>
</extensions>
</wpt>
<wpt lat="33.57486951" lon="-111.52744526">
<time>2026-01-14T15:47:02.611Z</time>
<extensions>
<label xmlns="http://www.topografix.com/GPX/gpx_overlay/0/5">
</label>
<ExtendedData xmlns="http://www.topografix.com/GPX/Private/TopoGrafix/0/5">
<Data name="Date">
<value>1/9/2021</value>
</Data>
<Data name="Elevation (ft)">
<value>1500-1505</value>
</Data>
<Data name="Datum">
<value>WGS84</value>
</Data>
<Data name="Structure Number">
<value>40</value>
</Data>
<Data name="Structure Type">
<value>Christmas trees</value>
</Data>
<Data name="Site">
<value>2</value>
</Data>
<Data name="UTMZone">
<value>12N</value>
</Data>
</ExtendedData>
</extensions>
</wpt>
<wpt lat="33.57493654" lon="-111.52741330">
<time>2026-01-14T15:47:02.611Z</time>
<extensions>
<label xmlns="http://www.topografix.com/GPX/gpx_overlay/0/5">
</label>
<ExtendedData xmlns="http://www.topografix.com/GPX/Private/TopoGrafix/0/5">
<Data name="Depth (ft)">
<value>25</value>
</Data>
<Data name="Date">
<value>10/24/2025</value>
</Data>
<Data name="Datum">
<value>WGS84</value>
</Data>
<Data name="Structure Number">
<value>1</value>
</Data>
<Data name="Structure Type">
<value>Mossback</value>
</Data>
<Data name="Site Comments">
<value>Mega reef</value>
</Data>
<Data name="Site">
<value>2</value>
</Data>
<Data name="UTMZone">
<value>12</value>
</Data>
</ExtendedData>
</extensions>
</wpt>
<wpt lat="33.57494432" lon="-111.52770427">
<time>2026-01-14T15:47:02.611Z</time>
<extensions>
<label xmlns="http://www.topografix.com/GPX/gpx_overlay/0/5">
</label>
<ExtendedData xmlns="http://www.topografix.com/GPX/Private/TopoGrafix/0/5">
<Data name="Depth (ft)">
<value>25</value>
</Data>
<Data name="Date">
<value>10/24/2025</value>
</Data>
<Data name="Datum">
<value>WGS84</value>
</Data>
<Data name="Structure Number">
<value>1</value>
</Data>
<Data name="Structure Type">
<value>Mossback</value>
</Data>
<Data name="Site Comments">
<value>Mega reef</value>
</Data>
<Data name="Site">
<value>2</value>
</Data>
<Data name="UTMZone">
<value>12</value>
</Data>
</ExtendedData>
</extensions>
</wpt>
<wpt lat="33.57493654" lon="-111.52741330">
<time>2026-01-14T15:47:02.611Z</time>
<extensions>
<label xmlns="http://www.topografix.com/GPX/gpx_overlay/0/5">
</label>
<ExtendedData xmlns="http://www.topografix.com/GPX/Private/TopoGrafix/0/5">
<Data name="Depth (ft)">
<value>25</value>
</Data>
<Data name="Date">
<value>10/24/2025</value>
</Data>
<Data name="Elevation (ft)">
<value>0</value>
</Data>
<Data name="Datum">
<value>WGS84</value>
</Data>
<Data name="Structure Number">
<value>3</value>
</Data>
<Data name="Structure Type">
<value>Mossback</value>
</Data>
<Data name="Site Comments">
<value>Mega reef</value>
</Data>
<Data name="Site">
<value>2</value>
</Data>
<Data name="UTMZone">
<value>12</value>
</Data>
</ExtendedData>
</extensions>
</wpt>
<wpt lat="33.57464084" lon="-111.52607544">
<time>2026-01-14T15:47:02.611Z</time>
<extensions>
<label xmlns="http://www.topografix.com/GPX/gpx_overlay/0/5">
</label>
<ExtendedData xmlns="http://www.topografix.com/GPX/Private/TopoGrafix/0/5">
<Data name="Date">
<value>1/9/2021</value>
</Data>
<Data name="Elevation (ft)">
<value>1500-1505</value>
</Data>
<Data name="Datum">
<value>WGS84</value>
</Data>
<Data name="Structure Number">
<value>40</value>
</Data>
<Data name="Structure Type">
<value>Christmas trees</value>
</Data>
<Data name="Site">
<value>3</value>
</Data>
<Data name="UTMZone">
<value>12N</value>
</Data>
</ExtendedData>
</extensions>
</wpt>
<wpt lat="33.57464084" lon="-111.52607544">
<time>2026-01-14T15:47:02.611Z</time>
<extensions>
<label xmlns="http://www.topografix.com/GPX/gpx_overlay/0/5">
</label>
<ExtendedData xmlns="http://www.topografix.com/GPX/Private/TopoGrafix/0/5">
<Data name="Date">
<value>1/10/2022</value>
</Data>
<Data name="Elevation (ft)">
<value>1500-1505</value>
</Data>
<Data name="Datum">
<value>WGS84</value>
</Data>
<Data name="Structure Number">
<value>61</value>
</Data>
<Data name="Structure Type">
<value>Christmas trees</value>
</Data>
<Data name="Site">
<value>3</value>
</Data>
<Data name="UTMZone">
<value>12N</value>
</Data>
</ExtendedData>
</extensions>
</wpt>
<wpt lat="33.57461776" lon="-111.52602138">
<time>2026-01-14T15:47:02.611Z</time>
<extensions>
<label xmlns="http://www.topografix.com/GPX/gpx_overlay/0/5">
</label>
<ExtendedData xmlns="http://www.topografix.com/GPX/Private/TopoGrafix/0/5">
<Data name="Depth (ft)">
<value>25</value>
</Data>
<Data name="Date">
<value>10/24/2025</value>
</Data>
<Data name="Datum">
<value>WGS84</value>
</Data>
<Data name="Structure Number">
<value>1</value>
</Data>
<Data name="Structure Type">
<value>Mossback</value>
</Data>
<Data name="Site">
<value>3</value>
</Data>
<Data name="UTMZone">
<value>12</value>
</Data>
</ExtendedData>
</extensions>
</wpt>
<wpt lat="33.57467966" lon="-111.52631268">
<time>2026-01-14T15:47:02.611Z</time>
<extensions>
<label xmlns="http://www.topografix.com/GPX/gpx_overlay/0/5">
</label>
<ExtendedData xmlns="http://www.topografix.com/GPX/Private/TopoGrafix/0/5">
<Data name="Depth (ft)">
<value>25</value>
</Data>
<Data name="Date">
<value>10/24/2025</value>
</Data>
<Data name="Datum">
<value>WGS84</value>
</Data>
<Data name="Structure Number">
<value>4</value>
</Data>
<Data name="Structure Type">
<value>Mossback</value>
</Data>
<Data name="Site Comments">
<value>Conservation cube</value>
</Data>
<Data name="Site">
<value>3</value>
</Data>
<Data name="UTMZone">
<value>12</value>
</Data>
</ExtendedData>
</extensions>
</wpt>
<wpt lat="33.57465384" lon="-111.52602160">
<time>2026-01-14T15:47:02.611Z</time>
<extensions>
<label xmlns="http://www.topografix.com/GPX/gpx_overlay/0/5">
</label>
<ExtendedData xmlns="http://www.topografix.com/GPX/Private/TopoGrafix/0/5">
<Data name="Depth (ft)">
<value>20</value>
</Data>
<Data name="Date">
<value>10/24/2025</value>
</Data>
<Data name="Datum">
<value>WGS84</value>
</Data>
<Data name="Structure Number">
<value>4</value>
</Data>
<Data name="Structure Type">
<value>Mossback</value>
</Data>
<Data name="Site Comments">
<value>4 conservation cubes 2 mega reef kits</value>
</Data>
<Data name="Site">
<value>3</value>
</Data>
<Data name="UTMZone">
<value>12</value>
</Data>
</ExtendedData>
</extensions>
</wpt>
<wpt lat="33.57465384" lon="-111.52602160">
<time>2026-01-14T15:47:02.611Z</time>
<extensions>
<label xmlns="http://www.topografix.com/GPX/gpx_overlay/0/5">
</label>
<ExtendedData xmlns="http://www.topografix.com/GPX/Private/TopoGrafix/0/5">
<Data name="Date">
<value>10/24/2025</value>
</Data>
<Data name="Datum">
<value>WGS84</value>
</Data>
<Data name="Structure Number">
<value>2</value>
</Data>
<Data name="Structure Type">
<value>Mossback</value>
</Data>
<Data name="Site Comments">
<value>4 conservation cubes 2 mega reef kits</value>
</Data>
<Data name="Site">
<value>3</value>
</Data>
<Data name="UTMZone">
<value>12</value>
</Data>
</ExtendedData>
</extensions>
</wpt>
<wpt lat="33.57466322" lon="-111.52593546">
<time>2026-01-14T15:47:02.611Z</time>
<extensions>
<label xmlns="http://www.topografix.com/GPX/gpx_overlay/0/5">
</label>
<ExtendedData xmlns="http://www.topografix.com/GPX/Private/TopoGrafix/0/5">
<Data name="Depth (ft)">
<value>25</value>
</Data>
<Data name="Date">
<value>10/24/2025</value>
</Data>
<Data name="Datum">
<value>WGS84</value>
</Data>
<Data name="Structure Number">
<value>5</value>
</Data>
<Data name="Structure Type">
<value>Mossback</value>
</Data>
<Data name="Site Comments">
<value>Conservation cubes</value>
</Data>
<Data name="Site">
<value>3</value>
</Data>
<Data name="UTMZone">
<value>12</value>
</Data>
</ExtendedData>
</extensions>
</wpt>
<wpt lat="33.57461776" lon="-111.52602138">
<time>2026-01-14T15:47:02.611Z</time>
<extensions>
<label xmlns="http://www.topografix.com/GPX/gpx_overlay/0/5">
</label>
<ExtendedData xmlns="http://www.topografix.com/GPX/Private/TopoGrafix/0/5">
<Data name="Depth (ft)">
<value>25</value>
</Data>
<Data name="Date">
<value>10/24/2025</value>
</Data>
<Data name="Datum">
<value>WGS84</value>
</Data>
<Data name="Structure Number">
<value>9</value>
</Data>
<Data name="Structure Type">
<value>Mossback</value>
</Data>
<Data name="Site">
<value>3</value>
</Data>
<Data name="UTMZone">
<value>12</value>
</Data>
</ExtendedData>
</extensions>
</wpt>
<wpt lat="33.57461776" lon="-111.52602138">
<time>2026-01-14T15:47:02.611Z</time>
<extensions>
<label xmlns="http://www.topografix.com/GPX/gpx_overlay/0/5">
</label>
<ExtendedData xmlns="http://www.topografix.com/GPX/Private/TopoGrafix/0/5">
<Data name="Depth (ft)">
<value>25</value>
</Data>
<Data name="Date">
<value>10/24/2025</value>
</Data>
<Data name="Datum">
<value>WGS84</value>
</Data>
<Data name="Structure Number">
<value>1</value>
</Data>
<Data name="Structure Type">
<value>Mossback</value>
</Data>
<Data name="Site">
<value>3</value>
</Data>
<Data name="UTMZone">
<value>12</value>
</Data>
</ExtendedData>
</extensions>
</wpt>
<wpt lat="33.57344161" lon="-111.51527171">
<time>2026-01-14T15:47:02.611Z</time>
<extensions>
<label xmlns="http://www.topografix.com/GPX/gpx_overlay/0/5">
</label>
<ExtendedData xmlns="http://www.topografix.com/GPX/Private/TopoGrafix/0/5">
<Data name="Date">
<value>1/8/2022</value>
</Data>
<Data name="Elevation (ft)">
<value>1500-1505</value>
</Data>
<Data name="Datum">
<value>WGS84</value>
</Data>
<Data name="Structure Number">
<value>254</value>
</Data>
<Data name="Structure Type">
<value>Christmas trees</value>
</Data>
<Data name="Site">
<value>4</value>
</Data>
<Data name="UTMZone">
<value>12N</value>
</Data>
</ExtendedData>
</extensions>
</wpt>
<wpt lat="33.57344161" lon="-111.51527171">
<time>2026-01-14T15:47:02.611Z</time>
<extensions>
<label xmlns="http://www.topografix.com/GPX/gpx_overlay/0/5">
</label>
<ExtendedData xmlns="http://www.topografix.com/GPX/Private/TopoGrafix/0/5">
<Data name="Date">
<value>1/9/2021</value>
</Data>
<Data name="Elevation (ft)">
<value>1500-1505</value>
</Data>
<Data name="Datum">
<value>WGS84</value>
</Data>
<Data name="Structure Number">
<value>96</value>
</Data>
<Data name="Structure Type">
<value>Christmas trees</value>
</Data>
<Data name="Site">
<value>4</value>
</Data>
<Data name="UTMZone">
<value>12N</value>
</Data>
</ExtendedData>
</extensions>
</wpt>
<wpt lat="33.57334647" lon="-111.51519569">
<time>2026-01-14T15:47:02.611Z</time>
<extensions>
<label xmlns="http://www.topografix.com/GPX/gpx_overlay/0/5">
</label>
<ExtendedData xmlns="http://www.topografix.com/GPX/Private/TopoGrafix/0/5">
<Data name="Depth (ft)">
<value>25</value>
</Data>
<Data name="Date">
<value>10/24/2025</value>
</Data>
<Data name="Datum">
<value>WGS84</value>
</Data>
<Data name="Structure Number">
<value>1</value>
</Data>
<Data name="Structure Type">
<value>Mossback</value>
</Data>
<Data name="Site Comments">
<value>Mega reef</value>
</Data>
<Data name="Site">
<value>4</value>
</Data>
<Data name="UTMZone">
<value>12</value>
</Data>
</ExtendedData>
</extensions>
</wpt>
<wpt lat="33.57360699" lon="-111.51544506">
<time>2026-01-14T15:47:02.611Z</time>
<extensions>
<label xmlns="http://www.topografix.com/GPX/gpx_overlay/0/5">
</label>
<ExtendedData xmlns="http://www.topografix.com/GPX/Private/TopoGrafix/0/5">
<Data name="Depth (ft)">
<value>20</value>
</Data>
<Data name="Date">
<value>10/24/2025</value>
</Data>
<Data name="Datum">
<value>WGS84</value>
</Data>
<Data name="Structure Number">
<value>4</value>
</Data>
<Data name="Structure Type">
<value>Mossback</value>
</Data>
<Data name="Site Comments">
<value>Conservation cubes</value>
</Data>
<Data name="Site">
<value>4</value>
</Data>
<Data name="UTMZone">
<value>12</value>
</Data>
</ExtendedData>
</extensions>
</wpt>
<wpt lat="33.57344559" lon="-111.51521783">
<time>2026-01-14T15:47:02.611Z</time>
<extensions>
<label xmlns="http://www.topografix.com/GPX/gpx_overlay/0/5">
</label>
<ExtendedData xmlns="http://www.topografix.com/GPX/Private/TopoGrafix/0/5">
<Data name="Depth (ft)">
<value>15</value>
</Data>
<Data name="Date">
<value>10/24/2025</value>
</Data>
<Data name="Datum">
<value>WGS84</value>
</Data>
<Data name="Structure Number">
<value>5</value>
</Data>
<Data name="Structure Type">
<value>Mossback</value>
</Data>
<Data name="Site Comments">
<value>Conservation cubes</value>
</Data>
<Data name="Site">
<value>4</value>
</Data>
<Data name="UTMZone">
<value>12</value>
</Data>
</ExtendedData>
</extensions>
</wpt>
<wpt lat="33.57329231" lon="-111.51520614">
<time>2026-01-14T15:47:02.611Z</time>
<extensions>
<label xmlns="http://www.topografix.com/GPX/gpx_overlay/0/5">
</label>
<ExtendedData xmlns="http://www.topografix.com/GPX/Private/TopoGrafix/0/5">
<Data name="Depth (ft)">
<value>25</value>
</Data>
<Data name="Date">
<value>10/24/2025</value>
</Data>
<Data name="Datum">
<value>WGS84</value>
</Data>
<Data name="Structure Number">
<value>10</value>
</Data>
<Data name="Structure Type">
<value>Mossback</value>
</Data>
<Data name="Site">
<value>4</value>
</Data>
<Data name="UTMZone">
<value>12</value>
</Data>
</ExtendedData>
</extensions>
</wpt>
<wpt lat="33.57344161" lon="-111.51527171">
<time>2026-01-14T15:47:02.611Z</time>
<extensions>
<label xmlns="http://www.topografix.com/GPX/gpx_overlay/0/5">
</label>
<ExtendedData xmlns="http://www.topografix.com/GPX/Private/TopoGrafix/0/5">
<Data name="Date">
<value>5/10/2021</value>
</Data>
<Data name="Elevation (ft)">
<value>1500-1505</value>
</Data>
<Data name="Datum">
<value>WGS84</value>
</Data>
<Data name="Structure Number">
<value>24</value>
</Data>
<Data name="Structure Type">
<value>Porcupine Cribs</value>
</Data>
<Data name="Site">
<value>4</value>
</Data>
<Data name="UTMZone">
<value>12N</value>
</Data>
</ExtendedData>
</extensions>
</wpt>
<wpt lat="33.57205794" lon="-111.51399208">
<time>2026-01-14T15:47:02.611Z</time>
<extensions>
<label xmlns="http://www.topografix.com/GPX/gpx_overlay/0/5">
</label>
<ExtendedData xmlns="http://www.topografix.com/GPX/Private/TopoGrafix/0/5">
<Data name="Date">
<value>1/9/2021</value>
</Data>
<Data name="Elevation (ft)">
<value>1500-1505</value>
</Data>
<Data name="Datum">
<value>WGS84</value>
</Data>
<Data name="Structure Number">
<value>72</value>
</Data>
<Data name="Structure Type">
<value>Christmas trees</value>
</Data>
<Data name="Site">
<value>5</value>
</Data>
<Data name="UTMZone">
<value>12N</value>
</Data>
</ExtendedData>
</extensions>
</wpt>
<wpt lat="33.57205794" lon="-111.51399208">
<time>2026-01-14T15:47:02.611Z</time>
<extensions>
<label xmlns="http://www.topografix.com/GPX/gpx_overlay/0/5">
</label>
<ExtendedData xmlns="http://www.topografix.com/GPX/Private/TopoGrafix/0/5">
<Data name="Date">
<value>1/8/2022</value>
</Data>
<Data name="Elevation (ft)">
<value>1500-1505</value>
</Data>
<Data name="Datum">
<value>WGS84</value>
</Data>
<Data name="Structure Number">
<value>82</value>
</Data>
<Data name="Structure Type">
<value>Christmas trees</value>
</Data>
<Data name="Site">
<value>5</value>
</Data>
<Data name="UTMZone">
<value>12N</value>
</Data>
</ExtendedData>
</extensions>
</wpt>
<wpt lat="33.57207112" lon="-111.51389515">
<time>2026-01-14T15:47:02.611Z</time>
<extensions>
<label xmlns="http://www.topografix.com/GPX/gpx_overlay/0/5">
</label>
<ExtendedData xmlns="http://www.topografix.com/GPX/Private/TopoGrafix/0/5">
<Data name="Depth (ft)">
<value>25</value>
</Data>
<Data name="Date">
<value>10/24/2025</value>
</Data>
<Data name="Datum">
<value>WGS84</value>
</Data>
<Data name="Structure Number">
<value>1</value>
</Data>
<Data name="Structure Type">
<value>Mossback</value>
</Data>
<Data name="Site Comments">
<value>Mega reef</value>
</Data>
<Data name="Site">
<value>5</value>
</Data>
<Data name="UTMZone">
<value>12</value>
</Data>
</ExtendedData>
</extensions>
</wpt>
<wpt lat="33.57210733" lon="-111.51386304">
<time>2026-01-14T15:47:02.611Z</time>
<extensions>
<label xmlns="http://www.topografix.com/GPX/gpx_overlay/0/5">
</label>
<ExtendedData xmlns="http://www.topografix.com/GPX/Private/TopoGrafix/0/5">
<Data name="Depth (ft)">
<value>25</value>
</Data>
<Data name="Date">
<value>10/24/2025</value>
</Data>
<Data name="Datum">
<value>WGS84</value>
</Data>
<Data name="Structure Number">
<value>4</value>
</Data>
<Data name="Structure Type">
<value>Mossback</value>
</Data>
<Data name="Site Comments">
<value>Conservation cubed</value>
</Data>
<Data name="Site">
<value>5</value>
</Data>
<Data name="UTMZone">
<value>12</value>
</Data>
</ExtendedData>
</extensions>
</wpt>
<wpt lat="33.57206210" lon="-111.51389509">
<time>2026-01-14T15:47:02.611Z</time>
<extensions>
<label xmlns="http://www.topografix.com/GPX/gpx_overlay/0/5">
</label>
<ExtendedData xmlns="http://www.topografix.com/GPX/Private/TopoGrafix/0/5">
<Data name="Depth (ft)">
<value>25</value>
</Data>
<Data name="Date">
<value>10/24/2025</value>
</Data>
<Data name="Datum">
<value>WGS84</value>
</Data>
<Data name="Structure Type">
<value>Mossback</value>
</Data>
<Data name="Site">
<value>5</value>
</Data>
<Data name="UTMZone">
<value>12</value>
</Data>
</ExtendedData>
</extensions>
</wpt>
<wpt lat="33.56364071" lon="-111.51450243">
<time>2026-01-14T15:47:02.611Z</time>
<extensions>
<label xmlns="http://www.topografix.com/GPX/gpx_overlay/0/5">
</label>
<ExtendedData xmlns="http://www.topografix.com/GPX/Private/TopoGrafix/0/5">
<Data name="Date">
<value>1/9/2021</value>
</Data>
<Data name="Elevation (ft)">
<value>1500-1505</value>
</Data>
<Data name="Datum">
<value>WGS84</value>
</Data>
<Data name="Structure Number">
<value>71</value>
</Data>
<Data name="Structure Type">
<value>Christmas trees</value>
</Data>
<Data name="Site">
<value>6</value>
</Data>
<Data name="UTMZone">
<value>12N</value>
</Data>
</ExtendedData>
</extensions>
</wpt>
<wpt lat="33.56364071" lon="-111.51450243">
<time>2026-01-14T15:47:02.611Z</time>
<extensions>
<label xmlns="http://www.topografix.com/GPX/gpx_overlay/0/5">
</label>
<ExtendedData xmlns="http://www.topografix.com/GPX/Private/TopoGrafix/0/5">
<Data name="Date">
<value>1/8/2022</value>
</Data>
<Data name="Elevation (ft)">
<value>1500-1505</value>
</Data>
<Data name="Datum">
<value>WGS84</value>
</Data>
<Data name="Structure Number">
<value>158</value>
</Data>
<Data name="Structure Type">
<value>Christmas trees</value>
</Data>
<Data name="Site">
<value>6</value>
</Data>
<Data name="UTMZone">
<value>12N</value>
</Data>
</ExtendedData>
</extensions>
</wpt>
<wpt lat="33.56364071" lon="-111.51450243">
<time>2026-01-14T15:47:02.611Z</time>
<extensions>
<label xmlns="http://www.topografix.com/GPX/gpx_overlay/0/5">
</label>
<ExtendedData xmlns="http://www.topografix.com/GPX/Private/TopoGrafix/0/5">
<Data name="Date">
<value>5/12/2021</value>
</Data>
<Data name="Elevation (ft)">
<value>1500-1505</value>
</Data>
<Data name="Datum">
<value>WGS84</value>
</Data>
<Data name="Structure Number">
<value>7</value>
</Data>
<Data name="Structure Type">
<value>Georgia Cubes</value>
</Data>
<Data name="Site">
<value>6</value>
</Data>
<Data name="UTMZone">
<value>12N</value>
</Data>
</ExtendedData>
</extensions>
</wpt>
<wpt lat="33.56352636" lon="-111.51470642">
<time>2026-01-14T15:47:02.611Z</time>
<extensions>
<label xmlns="http://www.topografix.com/GPX/gpx_overlay/0/5">
</label>
<ExtendedData xmlns="http://www.topografix.com/GPX/Private/TopoGrafix/0/5">
<Data name="Depth (ft)">
<value>25</value>
</Data>
<Data name="Date">
<value>10/24/2025</value>
</Data>
<Data name="Datum">
<value>WGS84</value>
</Data>
<Data name="Structure Number">
<value>1</value>
</Data>
<Data name="Structure Type">
<value>Mossback</value>
</Data>
<Data name="Site Comments">
<value>Conservation cube</value>
</Data>
<Data name="Site">
<value>6</value>
</Data>
<Data name="UTMZone">
<value>12</value>
</Data>
</ExtendedData>
</extensions>
</wpt>
<wpt lat="33.56358981" lon="-111.51463138">
<time>2026-01-14T15:47:02.611Z</time>
<extensions>
<label xmlns="http://www.topografix.com/GPX/gpx_overlay/0/5">
</label>
<ExtendedData xmlns="http://www.topografix.com/GPX/Private/TopoGrafix/0/5">
<Data name="Depth (ft)">
<value>25</value>
</Data>
<Data name="Date">
<value>10/24/2025</value>
</Data>
<Data name="Datum">
<value>WGS84</value>
</Data>
<Data name="Structure Number">
<value>11</value>
</Data>
<Data name="Structure Type">
<value>Mossback</value>
</Data>
<Data name="Site">
<value>6</value>
</Data>
<Data name="UTMZone">
<value>12</value>
</Data>
</ExtendedData>
</extensions>
</wpt>
<wpt lat="33.56364071" lon="-111.51450243">
<time>2026-01-14T15:47:02.611Z</time>
<extensions>
<label xmlns="http://www.topografix.com/GPX/gpx_overlay/0/5">
</label>
<ExtendedData xmlns="http://www.topografix.com/GPX/Private/TopoGrafix/0/5">
<Data name="Date">
<value>6/4/2021</value>
</Data>
<Data name="Elevation (ft)">
<value>1500-1505</value>
</Data>
<Data name="Datum">
<value>WGS84</value>
</Data>
<Data name="Structure Number">
<value>22</value>
</Data>
<Data name="Structure Type">
<value>Porcupine Cribs</value>
</Data>
<Data name="Site">
<value>6</value>
</Data>
<Data name="UTMZone">
<value>12N</value>
</Data>
</ExtendedData>
</extensions>
</wpt>
<wpt lat="33.56308264" lon="-111.51205351">
<time>2026-01-14T15:47:02.611Z</time>
<extensions>
<label xmlns="http://www.topografix.com/GPX/gpx_overlay/0/5">
</label>
<ExtendedData xmlns="http://www.topografix.com/GPX/Private/TopoGrafix/0/5">
<Data name="Date">
<value>1/9/2021</value>
</Data>
<Data name="Elevation (ft)">
<value>1500-1505</value>
</Data>
<Data name="Datum">
<value>WGS84</value>
</Data>
<Data name="Structure Number">
<value>46</value>
</Data>
<Data name="Structure Type">
<value>Christmas trees</value>
</Data>
<Data name="Site">
<value>7</value>
</Data>
<Data name="UTMZone">
<value>12N</value>
</Data>
</ExtendedData>
</extensions>
</wpt>
<wpt lat="33.56304170" lon="-111.51195628">
<time>2026-01-14T15:47:02.611Z</time>
<extensions>
<label xmlns="http://www.topografix.com/GPX/gpx_overlay/0/5">
</label>
<ExtendedData xmlns="http://www.topografix.com/GPX/Private/TopoGrafix/0/5">
<Data name="Depth (ft)">
<value>25</value>
</Data>
<Data name="Date">
<value>10/24/2025</value>
</Data>
<Data name="Datum">
<value>WGS84</value>
</Data>
<Data name="Structure Number">
<value>3</value>
</Data>
<Data name="Structure Type">
<value>Mossback</value>
</Data>
<Data name="Site Comments">
<value>Conservation cubr</value>
</Data>
<Data name="Site">
<value>7</value>
</Data>
<Data name="UTMZone">
<value>12</value>
</Data>
</ExtendedData>
</extensions>
</wpt>
<wpt lat="33.56304170" lon="-111.51195628">
<time>2026-01-14T15:47:02.611Z</time>
<extensions>
<label xmlns="http://www.topografix.com/GPX/gpx_overlay/0/5">
</label>
<ExtendedData xmlns="http://www.topografix.com/GPX/Private/TopoGrafix/0/5">
<Data name="Depth (ft)">
<value>25</value>
</Data>
<Data name="Date">
<value>10/24/2025</value>
</Data>
<Data name="Datum">
<value>WGS84</value>
</Data>
<Data name="Structure Number">
<value>11</value>
</Data>
<Data name="Structure Type">
<value>Mossback</value>
</Data>
<Data name="Site Comments">
<value>Conservation cubr</value>
</Data>
<Data name="Site">
<value>7</value>
</Data>
<Data name="UTMZone">
<value>12</value>
</Data>
</ExtendedData>
</extensions>
</wpt>
<wpt lat="33.56935237" lon="-111.50295384">
<time>2026-01-14T15:47:02.611Z</time>
<extensions>
<label xmlns="http://www.topografix.com/GPX/gpx_overlay/0/5">
</label>
<ExtendedData xmlns="http://www.topografix.com/GPX/Private/TopoGrafix/0/5">
<Data name="Date">
<value>1/9/2021</value>
</Data>
<Data name="Elevation (ft)">
<value>1500-1505</value>
</Data>
<Data name="Datum">
<value>WGS84</value>
</Data>
<Data name="Structure Number">
<value>44</value>
</Data>
<Data name="Structure Type">
<value>Christmas trees</value>
</Data>
<Data name="Site">
<value>8</value>
</Data>
<Data name="UTMZone">
<value>12N</value>
</Data>
</ExtendedData>
</extensions>
</wpt>
<wpt lat="33.56935237" lon="-111.50295384">
<time>2026-01-14T15:47:02.611Z</time>
<extensions>
<label xmlns="http://www.topografix.com/GPX/gpx_overlay/0/5">
</label>
<ExtendedData xmlns="http://www.topografix.com/GPX/Private/TopoGrafix/0/5">
<Data name="Date">
<value>5/12/2021</value>
</Data>
<Data name="Elevation (ft)">
<value>1500-1505</value>
</Data>
<Data name="Datum">
<value>WGS84</value>
</Data>
<Data name="Structure Number">
<value>12</value>
</Data>
<Data name="Structure Type">
<value>Georgia Cubes</value>
</Data>
<Data name="Site">
<value>8</value>
</Data>
<Data name="UTMZone">
<value>12N</value>
</Data>
</ExtendedData>
</extensions>
</wpt>
<wpt lat="33.56625934" lon="-111.48240063">
<time>2026-01-14T15:47:02.611Z</time>
<extensions>
<label xmlns="http://www.topografix.com/GPX/gpx_overlay/0/5">
</label>
<ExtendedData xmlns="http://www.topografix.com/GPX/Private/TopoGrafix/0/5">
<Data name="Date">
<value>11/9/2021</value>
</Data>
<Data name="Elevation (ft)">
<value>1500-1505</value>
</Data>
<Data name="Datum">
<value>WGS84</value>
</Data>
<Data name="Structure Number">
<value>12</value>
</Data>
<Data name="Structure Type">
<value>Georgia Cubes</value>
</Data>
<Data name="Site">
<value>Bagley Shelf</value>
</Data>
<Data name="UTMZone">
<value>12N</value>
</Data>
</ExtendedData>
</extensions>
</wpt>
<wpt lat="33.56625934" lon="-111.48240063">
<time>2026-01-14T15:47:02.611Z</time>
<extensions>
<label xmlns="http://www.topografix.com/GPX/gpx_overlay/0/5">
</label>
<ExtendedData xmlns="http://www.topografix.com/GPX/Private/TopoGrafix/0/5">
<Data name="Date">
<value>11/20/2021</value>
</Data>
<Data name="Elevation (ft)">
<value>1500-1505</value>
</Data>
<Data name="Datum">
<value>WGS84</value>
</Data>
<Data name="Structure Number">
<value>12</value>
</Data>
<Data name="Structure Type">
<value>Georgia Cubes</value>
</Data>
<Data name="Site">
<value>Bagley Shelf</value>
</Data>
<Data name="UTMZone">
<value>12N</value>
</Data>
</ExtendedData>
</extensions>
</wpt>
<wpt lat="33.56625934" lon="-111.48240063">
<time>2026-01-14T15:47:02.611Z</time>
<extensions>
<label xmlns="http://www.topografix.com/GPX/gpx_overlay/0/5">
</label>
<ExtendedData xmlns="http://www.topografix.com/GPX/Private/TopoGrafix/0/5">
<Data name="Date">
<value>5/12/2021</value>
</Data>
<Data name="Elevation (ft)">
<value>1500-1505</value>
</Data>
<Data name="Datum">
<value>WGS84</value>
</Data>
<Data name="Structure Number">
<value>46</value>
</Data>
<Data name="Structure Type">
<value>Mossback</value>
</Data>
<Data name="Site">
<value>Bagley Shelf</value>
</Data>
<Data name="UTMZone">
<value>12N</value>
</Data>
</ExtendedData>
</extensions>
</wpt>
<wpt lat="33.56648958" lon="-111.48214330">
<time>2026-01-14T15:47:02.611Z</time>
<extensions>
<label xmlns="http://www.topografix.com/GPX/gpx_overlay/0/5">
</label>
<ExtendedData xmlns="http://www.topografix.com/GPX/Private/TopoGrafix/0/5">
<Data name="Depth (ft)">
<value>15</value>
</Data>
<Data name="Date">
<value>10/24/2025</value>
</Data>
<Data name="Datum">
<value>WGS84</value>
</Data>
<Data name="Structure Number">
<value>11</value>
</Data>
<Data name="Structure Type">
<value>Mossback</value>
</Data>
<Data name="Site">
<value>Bagley shelf</value>
</Data>
<Data name="UTMZone">
<value>12</value>
</Data>
</ExtendedData>
</extensions>
</wpt>
<wpt lat="33.57947886" lon="-111.49003868">
<time>2026-01-14T15:47:02.611Z</time>
<extensions>
<label xmlns="http://www.topografix.com/GPX/gpx_overlay/0/5">
</label>
<ExtendedData xmlns="http://www.topografix.com/GPX/Private/TopoGrafix/0/5">
<Data name="Date">
<value>11/2/2021</value>
</Data>
<Data name="Elevation (ft)">
<value>1500-1505</value>
</Data>
<Data name="Datum">
<value>WGS84</value>
</Data>
<Data name="Structure Number">
<value>12</value>
</Data>
<Data name="Structure Type">
<value>Georgia Cubes</value>
</Data>
<Data name="Site">
<value>Blackwell Bay</value>
</Data>
<Data name="UTMZone">
<value>12N</value>
</Data>
</ExtendedData>
</extensions>
</wpt>
<wpt lat="33.57947886" lon="-111.49003868">
<time>2026-01-14T15:47:02.611Z</time>
<extensions>
<label xmlns="http://www.topografix.com/GPX/gpx_overlay/0/5">
</label>
<ExtendedData xmlns="http://www.topografix.com/GPX/Private/TopoGrafix/0/5">
<Data name="Date">
<value>11/9/2021</value>
</Data>
<Data name="Elevation (ft)">
<value>1500-1505</value>
</Data>
<Data name="Datum">
<value>WGS84</value>
</Data>
<Data name="Structure Number">
<value>12</value>
</Data>
<Data name="Structure Type">
<value>Georgia Cubes</value>
</Data>
<Data name="Site">
<value>Blackwell Bay</value>
</Data>
<Data name="UTMZone">
<value>12N</value>
</Data>
</ExtendedData>
</extensions>
</wpt>
<wpt lat="33.57947886" lon="-111.49003868">
<time>2026-01-14T15:47:02.611Z</time>
<extensions>
<label xmlns="http://www.topografix.com/GPX/gpx_overlay/0/5">
</label>
<ExtendedData xmlns="http://www.topografix.com/GPX/Private/TopoGrafix/0/5">
<Data name="Date">
<value>11/20/2021</value>
</Data>
<Data name="Elevation (ft)">
<value>1500-1505</value>
</Data>
<Data name="Datum">
<value>WGS84</value>
</Data>
<Data name="Structure Number">
<value>12</value>
</Data>
<Data name="Structure Type">
<value>Georgia Cubes</value>
</Data>
<Data name="Site">
<value>Blackwell Bay</value>
</Data>
<Data name="UTMZone">
<value>12N</value>
</Data>
</ExtendedData>
</extensions>
</wpt>
<wpt lat="33.57914005" lon="-111.48999363">
<time>2026-01-14T15:47:02.611Z</time>
<extensions>
<label xmlns="http://www.topografix.com/GPX/gpx_overlay/0/5">
</label>
<ExtendedData xmlns="http://www.topografix.com/GPX/Private/TopoGrafix/0/5">
<Data name="Depth (ft)">
<value>10</value>
</Data>
<Data name="Date">
<value>10/24/2025</value>
</Data>
<Data name="Datum">
<value>WGS84</value>
</Data>
<Data name="Structure Number">
<value>1</value>
</Data>
<Data name="Structure Type">
<value>Mossback</value>
</Data>
<Data name="Site Comments">
<value>Mega reef kit</value>
</Data>
<Data name="Site">
<value>Blqckwell Bay</value>
</Data>
<Data name="UTMZone">
<value>12</value>
</Data>
</ExtendedData>
</extensions>
</wpt>
<wpt lat="33.57914005" lon="-111.48999363">
<time>2026-01-14T15:47:02.611Z</time>
<extensions>
<label xmlns="http://www.topografix.com/GPX/gpx_overlay/0/5">
</label>
<ExtendedData xmlns="http://www.topografix.com/GPX/Private/TopoGrafix/0/5">
<Data name="Depth (ft)">
<value>10</value>
</Data>
<Data name="Date">
<value>10/24/2025</value>
</Data>
<Data name="Datum">
<value>WGS84</value>
</Data>
<Data name="Structure Number">
<value>11</value>
</Data>
<Data name="Structure Type">
<value>Mossback</value>
</Data>
<Data name="Site Comments">
<value>Mega reef kit</value>
</Data>
<Data name="Site">
<value>Blqckwell Bay</value>
</Data>
<Data name="UTMZone">
<value>12</value>
</Data>
</ExtendedData>
</extensions>
</wpt>
<wpt lat="33.56935237" lon="-111.50295384">
<time>2026-01-14T15:47:02.611Z</time>
<extensions>
<label xmlns="http://www.topografix.com/GPX/gpx_overlay/0/5">
</label>
<ExtendedData xmlns="http://www.topografix.com/GPX/Private/TopoGrafix/0/5">
<Data name="Date">
<value>1/10/2022</value>
</Data>
<Data name="Elevation (ft)">
<value>1500-1505</value>
</Data>
<Data name="Datum">
<value>WGS84</value>
</Data>
<Data name="Structure Number">
<value>44</value>
</Data>
<Data name="Structure Type">
<value>Christmas trees</value>
</Data>
<Data name="Site">
<value>Burro Creek</value>
</Data>
<Data name="UTMZone">
<value>12N</value>
</Data>
</ExtendedData>
</extensions>
</wpt>
<wpt lat="33.56935237" lon="-111.50295384">
<time>2026-01-14T15:47:02.611Z</time>
<extensions>
<label xmlns="http://www.topografix.com/GPX/gpx_overlay/0/5">
</label>
<ExtendedData xmlns="http://www.topografix.com/GPX/Private/TopoGrafix/0/5">
<Data name="Date">
<value>11/20/2021</value>
</Data>
<Data name="Elevation (ft)">
<value>1500-1505</value>
</Data>
<Data name="Datum">
<value>WGS84</value>
</Data>
<Data name="Structure Number">
<value>12</value>
</Data>
<Data name="Structure Type">
<value>Georgia Cubes</value>
</Data>
<Data name="Site">
<value>Burro Creek</value>
</Data>
<Data name="UTMZone">
<value>12N</value>
</Data>
</ExtendedData>
</extensions>
</wpt>
<wpt lat="33.56935581" lon="-111.50302925">
<time>2026-01-14T15:47:02.611Z</time>
<extensions>
<label xmlns="http://www.topografix.com/GPX/gpx_overlay/0/5">
</label>
<ExtendedData xmlns="http://www.topografix.com/GPX/Private/TopoGrafix/0/5">
<Data name="Depth (ft)">
<value>20</value>
</Data>
<Data name="Date">
<value>10/24/2025</value>
</Data>
<Data name="Datum">
<value>WGS84</value>
</Data>
<Data name="Structure Number">
<value>2</value>
</Data>
<Data name="Structure Type">
<value>Mossback</value>
</Data>
<Data name="Site Comments">
<value>Mega reef kit</value>
</Data>
<Data name="Site">
<value>Burro Creek</value>
</Data>
<Data name="UTMZone">
<value>12</value>
</Data>
</ExtendedData>
</extensions>
</wpt>
<wpt lat="33.56935581" lon="-111.50302925">
<time>2026-01-14T15:47:02.611Z</time>
<extensions>
<label xmlns="http://www.topografix.com/GPX/gpx_overlay/0/5">
</label>
<ExtendedData xmlns="http://www.topografix.com/GPX/Private/TopoGrafix/0/5">
<Data name="Date">
<value>10/24/2025</value>
</Data>
<Data name="Datum">
<value>WGS84</value>
</Data>
<Data name="Structure Number">
<value>23</value>
</Data>
<Data name="Structure Type">
<value>Mossback</value>
</Data>
<Data name="Site Comments">
<value>Mega reef kit</value>
</Data>
<Data name="Site">
<value>Burro Creek</value>
</Data>
<Data name="UTMZone">
<value>12</value>
</Data>
</ExtendedData>
</extensions>
</wpt>
<wpt lat="33.57481138" lon="-111.52627042">
<time>2026-01-14T15:47:02.611Z</time>
<extensions>
<label xmlns="http://www.topografix.com/GPX/gpx_overlay/0/5">
</label>
<ExtendedData xmlns="http://www.topografix.com/GPX/Private/TopoGrafix/0/5">
<Data name="Date">
<value>11/2/2021</value>
</Data>
<Data name="Elevation (ft)">
<value>1500-1505</value>
</Data>
<Data name="Datum">
<value>WGS84</value>
</Data>
<Data name="Structure Number">
<value>5</value>
</Data>
<Data name="Structure Type">
<value>Georgia Cubes</value>
</Data>
<Data name="Site">
<value>Fishing Pier</value>
</Data>
<Data name="UTMZone">
<value>12N</value>
</Data>
</ExtendedData>
</extensions>
</wpt>
<wpt lat="33.57481138" lon="-111.52627042">
<time>2026-01-14T15:47:02.611Z</time>
<extensions>
<label xmlns="http://www.topografix.com/GPX/gpx_overlay/0/5">
</label>
<ExtendedData xmlns="http://www.topografix.com/GPX/Private/TopoGrafix/0/5">
<Data name="Date">
<value>11/9/2021</value>
</Data>
<Data name="Elevation (ft)">
<value>1500-1505</value>
</Data>
<Data name="Datum">
<value>WGS84</value>
</Data>
<Data name="Structure Number">
<value>5</value>
</Data>
<Data name="Structure Type">
<value>Georgia Cubes</value>
</Data>
<Data name="Site">
<value>Fishing Pier</value>
</Data>
<Data name="UTMZone">
<value>12N</value>
</Data>
</ExtendedData>
</extensions>
</wpt>
<wpt lat="33.57481138" lon="-111.52627042">
<time>2026-01-14T15:47:02.611Z</time>
<extensions>
<label xmlns="http://www.topografix.com/GPX/gpx_overlay/0/5">
</label>
<ExtendedData xmlns="http://www.topografix.com/GPX/Private/TopoGrafix/0/5">
<Data name="Date">
<value>12/4/2021</value>
</Data>
<Data name="Elevation (ft)">
<value>1500-1505</value>
</Data>
<Data name="Datum">
<value>WGS84</value>
</Data>
<Data name="Structure Number">
<value>5</value>
</Data>
<Data name="Structure Type">
<value>Georgia Cubes</value>
</Data>
<Data name="Site">
<value>Fishing Pier</value>
</Data>
<Data name="UTMZone">
<value>12N</value>
</Data>
</ExtendedData>
</extensions>
</wpt>
<wpt lat="33.57465269" lon="-111.52629097">
<time>2026-01-14T15:47:02.611Z</time>
<extensions>
<label xmlns="http://www.topografix.com/GPX/gpx_overlay/0/5">
</label>
<ExtendedData xmlns="http://www.topografix.com/GPX/Private/TopoGrafix/0/5">
<Data name="Depth (ft)">
<value>20</value>
</Data>
<Data name="Date">
<value>10/24/2025</value>
</Data>
<Data name="Datum">
<value>WGS84</value>
</Data>
<Data name="Structure Number">
<value>4</value>
</Data>
<Data name="Structure Type">
<value>Mossback</value>
</Data>
<Data name="Site Comments">
<value>4 mega reef kit,</value>
</Data>
<Data name="Site">
<value>Fishing pier</value>
</Data>
<Data name="UTMZone">
<value>12</value>
</Data>
</ExtendedData>
</extensions>
</wpt>
<wpt lat="33.57509604" lon="-111.48299931">
<time>2026-01-14T15:47:02.611Z</time>
<extensions>
<label xmlns="http://www.topografix.com/GPX/gpx_overlay/0/5">
</label>
<ExtendedData xmlns="http://www.topografix.com/GPX/Private/TopoGrafix/0/5">
<Data name="Date">
<value>5/12/2021</value>
</Data>
<Data name="Elevation (ft)">
<value>1500-1505</value>
</Data>
<Data name="Datum">
<value>WGS84</value>
</Data>
<Data name="Structure Number">
<value>12</value>
</Data>
<Data name="Structure Type">
<value>Georgia Cubes</value>
</Data>
<Data name="Site">
<value>Hidden Cove</value>
</Data>
<Data name="UTMZone">
<value>12N</value>
</Data>
</ExtendedData>
</extensions>
</wpt>
<wpt lat="33.57754474" lon="-111.48647186">
<time>2026-01-14T15:47:02.611Z</time>
<extensions>
<label xmlns="http://www.topografix.com/GPX/gpx_overlay/0/5">
</label>
<ExtendedData xmlns="http://www.topografix.com/GPX/Private/TopoGrafix/0/5">
<Data name="Date">
<value>11/2/2021</value>
</Data>
<Data name="Elevation (ft)">
<value>1500-1505</value>
</Data>
<Data name="Datum">
<value>WGS84</value>
</Data>
<Data name="Structure Number">
<value>12</value>
</Data>
<Data name="Structure Type">
<value>Georgia Cubes</value>
</Data>
<Data name="Site">
<value>Homestead Cove</value>
</Data>
<Data name="UTMZone">
<value>12N</value>
</Data>
</ExtendedData>
</extensions>
</wpt>
<wpt lat="33.57754474" lon="-111.48647186">
<time>2026-01-14T15:47:02.611Z</time>
<extensions>
<label xmlns="http://www.topografix.com/GPX/gpx_overlay/0/5">
</label>
<ExtendedData xmlns="http://www.topografix.com/GPX/Private/TopoGrafix/0/5">
<Data name="Date">
<value>11/20/2021</value>
</Data>
<Data name="Elevation (ft)">
<value>1500-1505</value>
</Data>
<Data name="Datum">
<value>WGS84</value>
</Data>
<Data name="Structure Number">
<value>12</value>
</Data>
<Data name="Structure Type">
<value>Georgia Cubes</value>
</Data>
<Data name="Site">
<value>Homestead Cove</value>
</Data>
<Data name="UTMZone">
<value>12N</value>
</Data>
</ExtendedData>
</extensions>
</wpt>
<wpt lat="33.57748557" lon="-111.48641762">
<time>2026-01-14T15:47:02.611Z</time>
<extensions>
<label xmlns="http://www.topografix.com/GPX/gpx_overlay/0/5">
</label>
<ExtendedData xmlns="http://www.topografix.com/GPX/Private/TopoGrafix/0/5">
<Data name="Depth (ft)">
<value>10</value>
</Data>
<Data name="Date">
<value>10/24/2025</value>
</Data>
<Data name="Datum">
<value>WGS84</value>
</Data>
<Data name="Structure Number">
<value>1</value>
</Data>
<Data name="Structure Type">
<value>Mossback</value>
</Data>
<Data name="Site Comments">
<value>Mega reef kit</value>
</Data>
<Data name="Site">
<value>Homestead Cove</value>
</Data>
<Data name="UTMZone">
<value>12</value>
</Data>
</ExtendedData>
</extensions>
</wpt>
<wpt lat="33.57748557" lon="-111.48641762">
<time>2026-01-14T15:47:02.611Z</time>
<extensions>
<label xmlns="http://www.topografix.com/GPX/gpx_overlay/0/5">
</label>
<ExtendedData xmlns="http://www.topografix.com/GPX/Private/TopoGrafix/0/5">
<Data name="Depth (ft)">
<value>10</value>
</Data>
<Data name="Date">
<value>10/24/2025</value>
</Data>
<Data name="Datum">
<value>WGS84</value>
</Data>
<Data name="Structure Number">
<value>11</value>
</Data>
<Data name="Structure Type">
<value>Mossback</value>
</Data>
<Data name="Site Comments">
<value>Mega reef kit</value>
</Data>
<Data name="Site">
<value>Homestead Cove</value>
</Data>
<Data name="UTMZone">
<value>12</value>
</Data>
</ExtendedData>
</extensions>
</wpt>
<wpt lat="33.57509604" lon="-111.48299931">
<time>2026-01-14T15:47:02.611Z</time>
<extensions>
<label xmlns="http://www.topografix.com/GPX/gpx_overlay/0/5">
</label>
<ExtendedData xmlns="http://www.topografix.com/GPX/Private/TopoGrafix/0/5">
<Data name="Date">
<value>11/9/2021</value>
</Data>
<Data name="Elevation (ft)">
<value>1500-1505</value>
</Data>
<Data name="Datum">
<value>WGS84</value>
</Data>
<Data name="Structure Number">
<value>12</value>
</Data>
<Data name="Structure Type">
<value>Georgia Cubes</value>
</Data>
<Data name="Site">
<value>Premier Bay</value>
</Data>
<Data name="UTMZone">
<value>12N</value>
</Data>
</ExtendedData>
</extensions>
</wpt>
<wpt lat="33.57509604" lon="-111.48299931">
<time>2026-01-14T15:47:02.611Z</time>
<extensions>
<label xmlns="http://www.topografix.com/GPX/gpx_overlay/0/5">
</label>
<ExtendedData xmlns="http://www.topografix.com/GPX/Private/TopoGrafix/0/5">
<Data name="Date">
<value>11/30/2021</value>
</Data>
<Data name="Elevation (ft)">
<value>1500-1505</value>
</Data>
<Data name="Datum">
<value>WGS84</value>
</Data>
<Data name="Structure Number">
<value>12</value>
</Data>
<Data name="Structure Type">
<value>Georgia Cubes</value>
</Data>
<Data name="Site">
<value>Premier Bay</value>
</Data>
<Data name="UTMZone">
<value>12N</value>
</Data>
</ExtendedData>
</extensions>
</wpt>
<wpt lat="33.57509604" lon="-111.48299931">
<time>2026-01-14T15:47:02.611Z</time>
<extensions>
<label xmlns="http://www.topografix.com/GPX/gpx_overlay/0/5">
</label>
<ExtendedData xmlns="http://www.topografix.com/GPX/Private/TopoGrafix/0/5">
<Data name="Date">
<value>12/4/2021</value>
</Data>
<Data name="Elevation (ft)">
<value>1500-1505</value>
</Data>
<Data name="Datum">
<value>WGS84</value>
</Data>
<Data name="Structure Number">
<value>12</value>
</Data>
<Data name="Structure Type">
<value>Georgia Cubes</value>
</Data>
<Data name="Site">
<value>Premier Bay</value>
</Data>
<Data name="UTMZone">
<value>12N</value>
</Data>
</ExtendedData>
</extensions>
</wpt>
<wpt lat="33.57502806" lon="-111.48289115">
<time>2026-01-14T15:47:02.611Z</time>
<extensions>
<label xmlns="http://www.topografix.com/GPX/gpx_overlay/0/5">
</label>
<ExtendedData xmlns="http://www.topografix.com/GPX/Private/TopoGrafix/0/5">
<Data name="Depth (ft)">
<value>15</value>
</Data>
<Data name="Date">
<value>10/24/2025</value>
</Data>
<Data name="Datum">
<value>WGS84</value>
</Data>
<Data name="Structure Number">
<value>12</value>
</Data>
<Data name="Structure Type">
<value>Mossback</value>
</Data>
<Data name="Site">
<value>Premier Bay</value>
</Data>
<Data name="UTMZone">
<value>12</value>
</Data>
</ExtendedData>
</extensions>
</wpt>
<wpt lat="33.57962631" lon="-111.49604157">
<time>2026-01-14T15:47:02.611Z</time>
<extensions>
<label xmlns="http://www.topografix.com/GPX/gpx_overlay/0/5">
</label>
<ExtendedData xmlns="http://www.topografix.com/GPX/Private/TopoGrafix/0/5">
<Data name="Date">
<value>11/2/2021</value>
</Data>
<Data name="Elevation (ft)">
<value>1500-1505</value>
</Data>
<Data name="Datum">
<value>WGS84</value>
</Data>
<Data name="Structure Number">
<value>12</value>
</Data>
<Data name="Structure Type">
<value>Georgia Cubes</value>
</Data>
<Data name="Site">
<value>Skunks Wash</value>
</Data>
<Data name="UTMZone">
<value>12N</value>
</Data>
</ExtendedData>
</extensions>
</wpt>
<wpt lat="33.57962631" lon="-111.49604157">
<time>2026-01-14T15:47:02.611Z</time>
<extensions>
<label xmlns="http://www.topografix.com/GPX/gpx_overlay/0/5">
</label>
<ExtendedData xmlns="http://www.topografix.com/GPX/Private/TopoGrafix/0/5">
<Data name="Date">
<value>11/30/2021</value>
</Data>
<Data name="Elevation (ft)">
<value>1500-1505</value>
</Data>
<Data name="Datum">
<value>WGS84</value>
</Data>
<Data name="Structure Number">
<value>12</value>
</Data>
<Data name="Structure Type">
<value>Georgia Cubes</value>
</Data>
<Data name="Site">
<value>Skunks Wash</value>
</Data>
<Data name="UTMZone">
<value>12N</value>
</Data>
</ExtendedData>
</extensions>
</wpt>
<wpt lat="33.57940351" lon="-111.49630965">
<time>2026-01-14T15:47:02.611Z</time>
<extensions>
<label xmlns="http://www.topografix.com/GPX/gpx_overlay/0/5">
</label>
<ExtendedData xmlns="http://www.topografix.com/GPX/Private/TopoGrafix/0/5">
<Data name="Depth (ft)">
<value>15</value>
</Data>
<Data name="Date">
<value>10/24/2025</value>
</Data>
<Data name="Datum">
<value>WGS84</value>
</Data>
<Data name="Structure Number">
<value>1</value>
</Data>
<Data name="Structure Type">
<value>Mossback</value>
</Data>
<Data name="Site Comments">
<value>Mega reef kit</value>
</Data>
<Data name="Site">
<value>Skunks Wash</value>
</Data>
<Data name="UTMZone">
<value>12</value>
</Data>
</ExtendedData>
</extensions>
</wpt>
<wpt lat="33.57940351" lon="-111.49630965">
<time>2026-01-14T15:47:02.611Z</time>
<extensions>
<label xmlns="http://www.topografix.com/GPX/gpx_overlay/0/5">
</label>
<ExtendedData xmlns="http://www.topografix.com/GPX/Private/TopoGrafix/0/5">
<Data name="Depth (ft)">
<value>15</value>
</Data>
<Data name="Date">
<value>10/24/2025</value>
</Data>
<Data name="Datum">
<value>WGS84</value>
</Data>
<Data name="Structure Number">
<value>11</value>
</Data>
<Data name="Structure Type">
<value>Mossback</value>
</Data>
<Data name="Site Comments">
<value>Mega reef kit</value>
</Data>
<Data name="Site">
<value>Skunks Wash</value>
</Data>
<Data name="UTMZone">
<value>12</value>
</Data>
</ExtendedData>
</extensions>
</wpt>
<wpt lat="33.57287104" lon="-111.49371866">
<time>2026-01-14T15:47:02.611Z</time>
<extensions>
<label xmlns="http://www.topografix.com/GPX/gpx_overlay/0/5">
</label>
<ExtendedData xmlns="http://www.topografix.com/GPX/Private/TopoGrafix/0/5">
<Data name="Date">
<value>11/30/2021</value>
</Data>
<Data name="Elevation (ft)">
<value>1500-1505</value>
</Data>
<Data name="Datum">
<value>WGS84</value>
</Data>
<Data name="Structure Number">
<value>12</value>
</Data>
<Data name="Structure Type">
<value>Georgia Cubes</value>
</Data>
<Data name="Site">
<value>S gs</value>
</Data>
<Data name="UTMZone">
<value>12N</value>
</Data>
</ExtendedData>
</extensions>
</wpt>
<wpt lat="33.57287104" lon="-111.49371866">
<time>2026-01-14T15:47:02.611Z</time>
<extensions>
<label xmlns="http://www.topografix.com/GPX/gpx_overlay/0/5">
</label>
<ExtendedData xmlns="http://www.topografix.com/GPX/Private/TopoGrafix/0/5">
<Data name="Date">
<value>12/4/2021</value>
</Data>
<Data name="Elevation (ft)">
<value>1500-1505</value>
</Data>
<Data name="Datum">
<value>WGS84</value>
</Data>
<Data name="Structure Number">
<value>12</value>
</Data>
<Data name="Structure Type">
<value>Georgia Cubes</value>
</Data>
<Data name="Site">
<value>S gs</value>
</Data>
<Data name="UTMZone">
<value>12N</value>
</Data>
</ExtendedData>
</extensions>
</wpt>
<wpt lat="33.57287104" lon="-111.49371866">
<time>2026-01-14T15:47:02.611Z</time>
<extensions>
<label xmlns="http://www.topografix.com/GPX/gpx_overlay/0/5">
</label>
<ExtendedData xmlns="http://www.topografix.com/GPX/Private/TopoGrafix/0/5">
<Data name="Date">
<value>12/4/2021</value>
</Data>
<Data name="Elevation (ft)">
<value>1500-1505</value>
</Data>
<Data name="Datum">
<value>WGS84</value>
</Data>
<Data name="Structure Number">
<value>12</value>
</Data>
<Data name="Structure Type">
<value>Georgia Cubes</value>
</Data>
<Data name="Site">
<value>S gs</value>
</Data>
<Data name="UTMZone">
<value>12N</value>
</Data>
</ExtendedData>
</extensions>
</wpt>
<wpt lat="33.57215408" lon="-111.49350983">
<time>2026-01-14T15:47:02.611Z</time>
<extensions>
<label xmlns="http://www.topografix.com/GPX/gpx_overlay/0/5">
</label>
<ExtendedData xmlns="http://www.topografix.com/GPX/Private/TopoGrafix/0/5">
<Data name="Depth (ft)">
<value>25</value>
</Data>
<Data name="Date">
<value>10/24/2025</value>
</Data>
<Data name="Datum">
<value>WGS84</value>
</Data>
<Data name="Structure Number">
<value>1</value>
</Data>
<Data name="Structure Type">
<value>Mossback</value>
</Data>
<Data name="Site Comments">
<value>Mega reef kit</value>
</Data>
<Data name="Site">
<value>The Sticks</value>
</Data>
<Data name="UTMZone">
<value>12</value>
</Data>
</ExtendedData>
</extensions>
</wpt>
<wpt lat="33.57215408" lon="-111.49350983">
<time>2026-01-14T15:47:02.611Z</time>
<extensions>
<label xmlns="http://www.topografix.com/GPX/gpx_overlay/0/5">
</label>
<ExtendedData xmlns="http://www.topografix.com/GPX/Private/TopoGrafix/0/5">
<Data name="Date">
<value>10/24/2025</value>
</Data>
<Data name="Datum">
<value>WGS84</value>
</Data>
<Data name="Structure Number">
<value>11</value>
</Data>
<Data name="Structure Type">
<value>Mossback</value>
</Data>
<Data name="Site Comments">
<value>Mega reef kit</value>
</Data>
<Data name="Site">
<value>The Sticks</value>
</Data>
<Data name="UTMZone">
<value>12</value>
</Data>
</ExtendedData>
</extensions>
</wpt>
<extensions>
</extensions>
</gpx>
